,line1,line2,validFromUtcTime
0,1 00000U 00000E   26001.00000000  .00000000  00000-0  27772-4 0    01,2 00000  89.0018   0.3303 0010060 269.7914 105.3544 13.55312467    01,2026-01-01T00:00:00Z
1,1 00000U 00000E   26010.00000000  .00000000  00000-0  27772-4 0    01,2 00000  89.0039 359.4162 0010230 239.0313 101.9959 13.55311528    06,2026-01-10T00:00:00Z
